     2.100          NAVIGATION                              RINEX VERSION / TYPE
fic2rin                                 03/26/2016 00:26:05 PGM / RUN BY / DATE
                                                            END OF HEADER
 7 16  3 25 16  0  0.0  .463504344225D-03 -.193267624127D-11  .000000000000D+00
     .280000000000D+02 -.243125000000D+02  .493234830925D-08  .114662288593D+01
    -.103190541267D-05  .917021383066D-02  .272132456303D-05  .515365926743D+04
     .489600000000D+06 -.204890966415D-07  .212605534237D+01  .109896063805D-06
     .966749601847D+00  .331343750000D+03 -.268206233041D+01 -.859035782288D-08
    -.328942273195D-09  .100000000000D+01  .188900000000D+04  .000000000000D+00
     .240000000000D+01  .000000000000D+00 -.111758708954D-07  .280000000000D+02
     .482406000000D+06  .400000000000D+01
 8 16  3 25 16  0  0.0 -.288463197649D-04 -.147792889038D-11  .000000000000D+00
     .680000000000D+02  .599062500000D+02  .436625330055D-08 -.125922191889D+01
     .315718352795D-05  .183777255006D-02  .940077006817D-05  .515366682243D+04
     .489600000000D+06  .447034835815D-07 -.209370347520D+01  .968575477600D-07
     .962451204744D+00  .202406250000D+03 -.125302393583D+01 -.802783439153D-08
     .575738267524D-09  .100000000000D+01  .188900000000D+04  .000000000000D+00
     .240000000000D+01  .000000000000D+00  .465661287308D-08  .680000000000D+02
     .482406000000D+06  .400000000000D+01
 9 16  3 25 16  0  0.0  .968826934695D-04  .750333128963D-11  .000000000000D+00
     .290000000000D+02  .101250000000D+03  .479698552799D-08 -.240362429267D+01
     .528059899807D-05  .650937203318D-03  .861287117004D-05  .515361780739D+04
     .489600000000D+06  .111758708954D-07  .104759811182D+01  .745058059692D-08
     .955440376121D+00  .212906250000D+03  .200305046046D+01 -.820391315448D-08
     .431446542909D-09  .100000000000D+01  .188900000000D+04  .000000000000D+00
     .240000000000D+01  .000000000000D+00  .139698386192D-08  .290000000000D+02
     .482406000000D+06  .400000000000D+01
10 16  3 25 16  0  0.0  .189403072000D-04 -.954969436862D-11  .000000000000D+00
     .135000000000D+03 -.286250000000D+02  .440554065131D-08 -.385772777556D+00
    -.144913792610D-05  .130199082196D-02  .107418745756D-04  .515369002914D+04
     .489600000000D+06 -.149011611938D-07  .381843416168D-02  .670552253723D-07
     .960027927760D+00  .171625000000D+03 -.280055994709D+01 -.792140138673D-08
    -.251081887140D-09  .100000000000D+01  .188900000000D+04  .000000000000D+00
     .340000000000D+01  .000000000000D+00  .232830643654D-08  .135000000000D+03
     .482406000000D+06  .400000000000D+01
11 16  3 25 16  0  0.0 -.638125464320D-03 -.159161572810D-11  .000000000000D+00
     .690000000000D+02  .245312500000D+02  .651741433361D-08  .126658416823D+01
     .102631747723D-05  .162426903844D-01  .357255339622D-05  .515364876747D+04
     .489600000000D+06 -.210478901863D-06 -.140603854137D+01 -.339001417160D-06
     .895629121131D+00  .276937500000D+03  .151038868107D+01 -.935788979367D-08
     .276082928534D-09  .100000000000D+01  .188900000000D+04  .000000000000D+00
     .240000000000D+01  .000000000000D+00 -.121071934700D-07  .690000000000D+02
     .482406000000D+06  .400000000000D+01
12 16  3 25 16  0  0.0  .373813323677D-03  .147792889038D-11  .000000000000D+00
     .360000000000D+02 -.612812500000D+02  .364265173107D-08  .684598108945D+00
    -.314787030220D-05  .601885200012D-02  .105071812868D-04  .515376560974D+04
     .489600000000D+06 -.104308128357D-06 -.308259447676D+01  .104308128357D-06
     .990655684534D+00  .193062500000D+03  .696572070017D+00 -.761781731267D-08
    -.331085219600D-09  .100000000000D+01  .188900000000D+04  .000000000000D+00
     .240000000000D+01  .000000000000D+00 -.121071934700D-07  .360000000000D+02
     .482406000000D+06  .400000000000D+01
13 16  3 25 16  0  0.0 -.612204894423D-05 -.272848410532D-11  .000000000000D+00
     .400000000000D+02  .891562500000D+02  .443875632059D-08  .209779106727D+01
     .456348061562D-05  .459660962224D-02  .733323395252D-05  .515368254471D+04
     .489600000000D+06  .502914190292D-07  .116739565556D+01 -.745058059692D-07
     .971783314241D+00  .242250000000D+03  .198472715844D+01 -.801283376669D-08
     .338585532018D-09  .100000000000D+01  .188900000000D+04  .000000000000D+00
     .240000000000D+01  .000000000000D+00 -.111758708954D-07  .400000000000D+02
     .482406000000D+06  .400000000000D+01
14 16  3 25 16  0  0.0 -.459374859929D-05 -.216004991671D-11  .000000000000D+00
     .110000000000D+02  .919062500000D+02  .457269047091D-08 -.237010760916D+01
     .482983887196D-05  .841269863304D-02  .720657408237D-05  .515374289703D+04
     .489600000000D+06  .119209289551D-06  .113074001067D+01  .391155481339D-07
     .964305933247D+00  .241906250000D+03 -.195246636815D+01 -.799604735318D-08
     .422874757288D-09  .100000000000D+01  .188900000000D+04  .000000000000D+00
     .240000000000D+01  .000000000000D+00 -.931322574615D-08  .110000000000D+02
     .482406000000D+06  .400000000000D+01
15 16  3 25 16  0  0.0 -.303397420794D-03 -.181898940355D-11  .000000000000D+00
     .830000000000D+02  .856562500000D+02  .524914721948D-08  .311883546338D+01
     .438280403614D-05  .809774047229D-02  .871717929840D-05  .515356515694D+04
     .489600000000D+06 -.111758708954D-06  .996562150448D+00 -.111758708954D-06
     .931237471744D+00  .196781250000D+03  .478560887582D+00 -.826355849609D-08
     .331085219600D-09  .100000000000D+01  .188900000000D+04  .000000000000D+00
     .240000000000D+01  .000000000000D+00 -.107102096081D-07  .830000000000D+02
     .482406000000D+06  .400000000000D+01
16 16  3 25 16  0  0.0 -.295015051961D-04  .284217094304D-11  .000000000000D+00
     .630000000000D+02 -.572812500000D+02  .353621872628D-08 -.136542801741D+01
    -.306405127048D-05  .870853045490D-02  .109970569611D-04  .515373066711D+04
     .489600000000D+06  .819563865662D-07 -.306384455272D+01 -.147148966789D-06
     .991175636341D+00  .183562500000D+03  .348134440854D+00 -.748352600461D-08
    -.228580949885D-09  .100000000000D+01  .188900000000D+04  .000000000000D+00
     .240000000000D+01  .000000000000D+00 -.102445483208D-07  .630000000000D+02
     .482406000000D+06  .400000000000D+01
17 16  3 25 16  0  0.0 -.202453229576D-03 -.454747350886D-12  .000000000000D+00
     .400000000000D+02  .517187500000D+02  .404159692016D-08 -.230044288554D+01
     .268407166004D-05  .109903257107D-01  .896304845810D-05  .515366130257D+04
     .489600000000D+06  .152736902237D-06 -.204196405650D+01 -.931322574615D-07
     .975558447491D+00  .214562500000D+03 -.193499012641D+01 -.764067540766D-08
     .577524056195D-09  .100000000000D+01  .188900000000D+04  .000000000000D+00
     .240000000000D+01  .000000000000D+00 -.107102096081D-07  .400000000000D+02
     .482406000000D+06  .400000000000D+01
18 16  3 25 16  0  0.0  .497502274811D-03  .409272615798D-11  .000000000000D+00
     .115000000000D+03 -.241875000000D+02  .533915096850D-08 -.740595347786D+00
    -.108778476715D-05  .168853161158D-01  .104159116745D-04  .515367517662D+04
     .489600000000D+06 -.188127160072D-06 -.228834795431D-01  .283122062683D-06
     .925492577818D+00  .165500000000D+03 -.190219653405D+01 -.862464496537D-08
    -.243581574722D-09  .100000000000D+01  .188900000000D+04  .000000000000D+00
     .340000000000D+01  .000000000000D+00 -.111758708954D-07  .115000000000D+03
     .482406000000D+06  .400000000000D+01
19 16  3 25 16  0  0.0 -.525442883372D-03 -.113686837722D-12  .000000000000D+00
     .650000000000D+02  .517187500000D+02  .417338812408D-08  .834653128802D+00
     .286474823952D-05  .107319486560D-01  .872090458870D-05  .515360695839D+04
     .489600000000D+06 -.171363353729D-06 -.199301513941D+01  .894069671631D-07
     .972609301196D+00  .220781250000D+03  .728916229075D+00 -.797711799327D-08
     .406088343781D-09  .100000000000D+01  .188900000000D+04  .000000000000D+00
     .240000000000D+01  .000000000000D+00 -.153668224812D-07  .650000000000D+02
     .482406000000D+06  .400000000000D+01
20 16  3 25 16  0  0.0  .401651021093D-03  .250111042988D-11  .000000000000D+00
     .830000000000D+02 -.443750000000D+02  .523271796371D-08 -.306541690438D+01
    -.248663127422D-05  .473926577251D-02  .100620090961D-04  .515371566391D+04
     .489600000000D+06  .614672899246D-07 -.747696508675D-01 -.521540641785D-07
     .926726992482D+00  .165781250000D+03  .134713354950D+01 -.827213028172D-08
    -.298583865788D-09  .100000000000D+01  .188900000000D+04  .000000000000D+00
     .240000000000D+01  .000000000000D+00 -.838190317154D-08  .830000000000D+02
     .482406000000D+06  .400000000000D+01
21 16  3 25 16  0  0.0 -.516375992447D-03 -.159161572810D-11  .000000000000D+00
     .117000000000D+03 -.128437500000D+02  .555344560901D-08  .127118319354D+00
    -.622123479843D-06  .233181858202D-01  .423751771450D-05  .515363776970D+04
     .489600000000D+06 -.406056642532D-06 -.106505215085D+01  .147148966789D-06
     .935634965455D+00  .289093750000D+03 -.181138910100D+01 -.906002024335D-08
    -.692886004340D-10  .100000000000D+01  .188900000000D+04  .000000000000D+00
     .240000000000D+01  .000000000000D+00 -.116415321827D-07  .117000000000D+03
     .482406000000D+06  .400000000000D+01
23 16  3 25 16  0  0.0 -.166334677488D-03 -.181898940355D-11  .000000000000D+00
     .730000000000D+02  .103656250000D+03  .490984737199D-08  .269591862379D+01
     .527128577232D-05  .106192689855D-01  .857189297676D-05  .515371183205D+04
     .489600000000D+06 -.763684511185D-07  .105341709084D+01 -.147148966789D-06
     .946387530371D+00  .208843750000D+03 -.260161489552D+01 -.813355308085D-08
     .428589281035D-09  .100000000000D+01  .188900000000D+04  .000000000000D+00
     .240000000000D+01  .000000000000D+00 -.200234353542D-07  .730000000000D+02
     .482406000000D+06  .400000000000D+01
